{"type": "FeatureCollection", "features": [ {"type": "Feature", "properties": {"norad_id": 39122, "name": "EUTELSAT 117 WEST A", "group": "eutelsat", "lat": -0.031301649748975764, "lon": -84.31170531187234, "alt_km": 35774.01324363223, "timestamp": "2025-12-13T20:38:50.666718+00:00", "meta": {"OBJECT_NAME": "EUTELSAT 117 WEST A", "OBJECT_ID": "2013-012A", "EPOCH": "2025-12-13T05:13:48.663840", "MEAN_MOTION": 1.00271833, "ECCENTRICITY": 0.00028899, "INCLINATION": 0.0167, "RA_OF_ASC_NODE": 18.6403, "ARG_OF_PERICENTER": 246.8525, "MEAN_ANOMALY": 138.3061, "EPHEMERIS_TYPE": 0, "CLASSIFICATION_TYPE": "U", "NORAD_CAT_ID": 39122, "ELEMENT_SET_NO": 999, "REV_AT_EPOCH": 4656, "BSTAR": 0, "MEAN_MOTION_DOT": 1e-08, "MEAN_MOTION_DDOT": 0}, "tle": {"line1": "1 39122U 13012A   25347.21792435  .00000001  00000+0  00000+0 0  9997", "line2": "2 39122   0.0167  18.6403 0002889 246.8525 138.3061  1.00271833 46562"}}, "geometry": {"type": "Point", "coordinates": [-84.31170531187234, -0.031301649748975764]}}, {"type": "Feature", "properties": {"norad_id": 39163, "name": "EUTELSAT 7B", "group": "eutelsat", "lat": 0.03883885023131104, "lon": 39.544316312024364, "alt_km": 35782.69679164103, "timestamp": "2025-12-13T20:38:50.666735+00:00", "meta": {"OBJECT_NAME": "EUTELSAT 7B", "OBJECT_ID": "2013-022A", "EPOCH": "2025-12-13T04:55:20.784288", "MEAN_MOTION": 1.00273243, "ECCENTRICITY": 0.00046461, "INCLINATION": 0.0744, "RA_OF_ASC_NODE": 22.0516, "ARG_OF_PERICENTER": 296.2554, "MEAN_ANOMALY": 204.6691, "EPHEMERIS_TYPE": 0, "CLASSIFICATION_TYPE": "U", "NORAD_CAT_ID": 39163, "ELEMENT_SET_NO": 999, "REV_AT_EPOCH": 4609, "BSTAR": 0, "MEAN_MOTION_DOT": 6.2e-07, "MEAN_MOTION_DDOT": 0}, "tle": {"line1": "1 39163U 13022A   25347.20510167  .00000062  00000+0  00000+0 0  9999", "line2": "2 39163   0.0744  22.0516 0004646 296.2554 204.6691  1.00273243 46097"}}, "geometry": {"type": "Point", "coordinates": [39.544316312024364, 0.03883885023131104]}}, {"type": "Feature", "properties": {"norad_id": 39612, "name": "EXPRESS-AT1", "group": "eutelsat", "lat": 0.03038128718958216, "lon": 88.4757287712292, "alt_km": 35786.5338228629, "timestamp": "2025-12-13T20:38:50.666747+00:00", "meta": {"OBJECT_NAME": "EXPRESS-AT1", "OBJECT_ID": "2014-010A", "EPOCH": "2025-12-13T05:09:19.444896", "MEAN_MOTION": 1.00270773, "ECCENTRICITY": 6.81e-06, "INCLINATION": 0.0161, "RA_OF_ASC_NODE": 324.9863, "ARG_OF_PERICENTER": 266.3434, "MEAN_ANOMALY": 344.1406, "EPHEMERIS_TYPE": 0, "CLASSIFICATION_TYPE": "U", "NORAD_CAT_ID": 39612, "ELEMENT_SET_NO": 999, "REV_AT_EPOCH": 4295, "BSTAR": 0, "MEAN_MOTION_DOT": 0, "MEAN_MOTION_DDOT": 0}, "tle": {"line1": "1 39612U 14010A   25347.21480839  .00000000  00000+0  00000+0 0  9991", "line2": "2 39612   0.0161 324.9863 0000068 266.3434 344.1406  1.00270773 42957"}}, "geometry": {"type": "Point", "coordinates": [88.4757287712292, 0.03038128718958216]}}, {"type": "Feature", "properties": {"norad_id": 39613, "name": "EXPRESS-AT2", "group": "eutelsat", "lat": -0.019507859246393287, "lon": 172.32795630672925, "alt_km": 35789.77206545637, "timestamp": "2025-12-13T20:38:50.666760+00:00", "meta": {"OBJECT_NAME": "EXPRESS-AT2", "OBJECT_ID": "2014-010B", "EPOCH": "2025-12-13T06:03:32.565600", "MEAN_MOTION": 1.00270486, "ECCENTRICITY": 0.00014697, "INCLINATION": 0.0188, "RA_OF_ASC_NODE": 313.712, "ARG_OF_PERICENTER": 340.5083, "MEAN_ANOMALY": 18.7089, "EPHEMERIS_TYPE": 0, "CLASSIFICATION_TYPE": "U", "NORAD_CAT_ID": 39613, "ELEMENT_SET_NO": 999, "REV_AT_EPOCH": 4263, "BSTAR": 0, "MEAN_MOTION_DOT": -2.67e-06, "MEAN_MOTION_DDOT": 0}, "tle": {"line1": "1 39613U 14010B   25347.25246025 -.00000267  00000+0  00000+0 0  9999", "line2": "2 39613   0.0188 313.7120 0001469 340.5083  18.7089  1.00270486 42637"}}, "geometry": {"type": "Point", "coordinates": [172.32795630672925, -0.019507859246393287]}}, {"type": "Feature", "properties": {"norad_id": 39773, "name": "EUTELSAT 3B", "group": "eutelsat", "lat": 0.06033512930588514, "lon": 35.59572501066721, "alt_km": 35804.84168017061, "timestamp": "2025-12-13T20:38:50.666772+00:00", "meta": {"OBJECT_NAME": "EUTELSAT 3B", "OBJECT_ID": "2014-030A", "EPOCH": "2025-12-13T04:54:13.391424", "MEAN_MOTION": 1.00270841, "ECCENTRICITY": 0.00045373, "INCLINATION": 0.061, "RA_OF_ASC_NODE": 350.2392, "ARG_OF_PERICENTER": 239.9894, "MEAN_ANOMALY": 288.5624, "EPHEMERIS_TYPE": 0, "CLASSIFICATION_TYPE": "U", "NORAD_CAT_ID": 39773, "ELEMENT_SET_NO": 999, "REV_AT_EPOCH": 4220, "BSTAR": 0, "MEAN_MOTION_DOT": 3.3e-07, "MEAN_MOTION_DDOT": 0}, "tle": {"line1": "1 39773U 14030A   25347.20432166  .00000033  00000+0  00000+0 0  9996", "line2": "2 39773   0.0610 350.2392 0004537 239.9894 288.5624  1.00270841 42201"}}, "geometry": {"type": "Point", "coordinates": [35.59572501066721, 0.06033512930588514]}}, {"type": "Feature", "properties": {"norad_id": 40425, "name": "EUTELSAT 115 WEST B", "group": "eutelsat", "lat": -0.0004138705979898247, "lon": -82.39361544201603, "alt_km": 35785.64665021602, "timestamp": "2025-12-13T20:38:50.666784+00:00", "meta": {"OBJECT_NAME": "EUTELSAT 115 WEST B", "OBJECT_ID": "2015-010B", "EPOCH": "2025-12-12T23:12:23.635008", "MEAN_MOTION": 1.00273842, "ECCENTRICITY": 7.22e-06, "INCLINATION": 0.0199, "RA_OF_ASC_NODE": 163.8927, "ARG_OF_PERICENTER": 349.5019, "MEAN_ANOMALY": 161.7193, "EPHEMERIS_TYPE": 0, "CLASSIFICATION_TYPE": "U", "NORAD_CAT_ID": 40425, "ELEMENT_SET_NO": 999, "REV_AT_EPOCH": 3952, "BSTAR": 0, "MEAN_MOTION_DOT": -1.3e-07, "MEAN_MOTION_DDOT": 0}, "tle": {"line1": "1 40425U 15010B   25346.96694022 -.00000013  00000+0  00000+0 0  9993", "line2": "2 40425   0.0199 163.8927 0000072 349.5019 161.7193  1.00273842 39526"}}, "geometry": {"type": "Point", "coordinates": [-82.39361544201603, -0.0004138705979898247]}}, {"type": "Feature", "properties": {"norad_id": 40875, "name": "EUTELSAT 8 WEST B", "group": "eutelsat", "lat": 0.031483775589933795, "lon": 24.545241477248958, "alt_km": 35795.47596808451, "timestamp": "2025-12-13T20:38:50.666795+00:00", "meta": {"OBJECT_NAME": "EUTELSAT 8 WEST B", "OBJECT_ID": "2015-039B", "EPOCH": "2025-12-13T04:51:06.190272", "MEAN_MOTION": 1.00271685, "ECCENTRICITY": 0.00042245, "INCLINATION": 0.0659, "RA_OF_ASC_NODE": 9.0443, "ARG_OF_PERICENTER": 253.9017, "MEAN_ANOMALY": 243.9823, "EPHEMERIS_TYPE": 0, "CLASSIFICATION_TYPE": "U", "NORAD_CAT_ID": 40875, "ELEMENT_SET_NO": 999, "REV_AT_EPOCH": 3779, "BSTAR": 0, "MEAN_MOTION_DOT": -5.2e-07, "MEAN_MOTION_DDOT": 0}, "tle": {"line1": "1 40875U 15039B   25347.20215498 -.00000052  00000+0  00000+0 0  9990", "line2": "2 40875   0.0659   9.0443 0004224 253.9017 243.9823  1.00271685 37792"}}, "geometry": {"type": "Point", "coordinates": [24.545241477248958, 0.031483775589933795]}}, {"type": "Feature", "properties": {"norad_id": 41310, "name": "EUTELSAT 9B", "group": "eutelsat", "lat": 0.00019179567589483278, "lon": 41.52662221272672, "alt_km": 35799.257798881, "timestamp": "2025-12-13T20:38:50.666807+00:00", "meta": {"OBJECT_NAME": "EUTELSAT 9B", "OBJECT_ID": "2016-005A", "EPOCH": "2025-12-13T04:55:50.735712", "MEAN_MOTION": 1.00270256, "ECCENTRICITY": 0.00046258, "INCLINATION": 0.0461, "RA_OF_ASC_NODE": 65.0532, "ARG_OF_PERICENTER": 205.7172, "MEAN_ANOMALY": 254.3324, "EPHEMERIS_TYPE": 0, "CLASSIFICATION_TYPE": "U", "NORAD_CAT_ID": 41310, "ELEMENT_SET_NO": 999, "REV_AT_EPOCH": 3625, "BSTAR": 0, "MEAN_MOTION_DOT": 7.5e-07, "MEAN_MOTION_DDOT": 0}, "tle": {"line1": "1 41310U 16005A   25347.20544833  .00000075  00000+0  00000+0 0  9991", "line2": "2 41310   0.0461  65.0532 0004625 205.7172 254.3324  1.00270256 36256"}}, "geometry": {"type": "Point", "coordinates": [41.52662221272672, 0.00019179567589483278]}}, {"type": "Feature", "properties": {"norad_id": 41382, "name": "EUTELSAT 65 WEST A", "group": "eutelsat", "lat": -0.04244162503090681, "lon": -32.68511158749371, "alt_km": 35780.45814193292, "timestamp": "2025-12-13T20:38:50.666819+00:00", "meta": {"OBJECT_NAME": "EUTELSAT 65 WEST A", "OBJECT_ID": "2016-014A", "EPOCH": "2025-12-13T04:34:45.254784", "MEAN_MOTION": 1.00271825, "ECCENTRICITY": 0.00024801, "INCLINATION": 0.0523, "RA_OF_ASC_NODE": 15.6423, "ARG_OF_PERICENTER": 254.5955, "MEAN_ANOMALY": 175.3791, "EPHEMERIS_TYPE": 0, "CLASSIFICATION_TYPE": "U", "NORAD_CAT_ID": 41382, "ELEMENT_SET_NO": 999, "REV_AT_EPOCH": 3567, "BSTAR": 0, "MEAN_MOTION_DOT": -2.63e-06, "MEAN_MOTION_DDOT": 0}, "tle": {"line1": "1 41382U 16014A   25347.19080156 -.00000263  00000+0  00000+0 0  9991", "line2": "2 41382   0.0523  15.6423 0002480 254.5955 175.3791  1.00271825 35670"}}, "geometry": {"type": "Point", "coordinates": [-32.68511158749371, -0.04244162503090681]}}, {"type": "Feature", "properties": {"norad_id": 41589, "name": "EUTELSAT 117 WEST B", "group": "eutelsat", "lat": 0.007075428690899162, "lon": -84.49010518404603, "alt_km": 35786.92610785923, "timestamp": "2025-12-13T20:38:50.666835+00:00", "meta": {"OBJECT_NAME": "EUTELSAT 117 WEST B", "OBJECT_ID": "2016-038B", "EPOCH": "2025-12-12T23:11:46.195296", "MEAN_MOTION": 1.00271866, "ECCENTRICITY": 2.512e-05, "INCLINATION": 0.011, "RA_OF_ASC_NODE": 153.7448, "ARG_OF_PERICENTER": 269.9053, "MEAN_ANOMALY": 249.2194, "EPHEMERIS_TYPE": 0, "CLASSIFICATION_TYPE": "U", "NORAD_CAT_ID": 41589, "ELEMENT_SET_NO": 999, "REV_AT_EPOCH": 3479, "BSTAR": 0, "MEAN_MOTION_DOT": 1e-08, "MEAN_MOTION_DDOT": 0}, "tle": {"line1": "1 41589U 16038B   25346.96650689  .00000001  00000+0  00000+0 0  9993", "line2": "2 41589   0.0110 153.7448 0000251 269.9053 249.2194  1.00271866 34790"}}, "geometry": {"type": "Point", "coordinates": [-84.49010518404603, 0.007075428690899162]}}]}